Agencies Name,Address,City/Town,State,Zip Code,Phone,lat,lng,webpage
Answer House Boston- sober housing.,5 G Street,Boston,ma,2127,617-268-7124,42.3361536,-71.0444163,"https://jpndc.org/housing-and-wellness-resources/
"
Bartons Crossing Emergency (BCAC) P.O. Box 644-02,1307 North Street,Pittsfield,MA,1201,(413) 442-1445BCAC at (413) 445-4503,42.4072107,-71.3824374,"https://bostonprojectrebound.org/mens-homeless-shelters/
"
Boston Family Shelter,100 Devon Street,Dorchester,Ma,2121,617-547-1885,42.3092264,-71.0782478,"https://www.prohope.org/family-shelter
"
Boston Night Center,31 Bowker Street,Boston,Ma,2114,617-788-1001,42.362289,-71.0607594,"https://www.baycovehumanservices.org/homeless-services
"
Boston Public Health Commission                                            Shelter at 112 Southampton Street,                                                       112 Southampton Street,Boston,Ma,2218,(617) 534-5395,42.3275375,-71.0672225,"https://www.bhchp.org/locations/southampton-street-shelter/
"
Boston Rescue Mission,39 Kingston St,Boston,Ma,20111,617-338-9000,42.3535519,-71.0594467,"https://www.brm.org/
"
Bridge Over Trouble Waters (TEEN),47 West Street,Boston,Ma,2111,617-423-9575,42.4072107,-71.3824374,"https://bridgeotw.org/
"
Casa Myrna,451 Blue Hill Avenue,Boston,Ma,2121,617-521-0100,42.3098891,-71.0826185,"https://casamyrna.org/
"
"CASPAR, Inc.Emergency Service Center",240 Albany Street,Boston,Ma,2139,617-661-0600,42.3636712,-71.0596882,"https://www.baycovehumanservices.org/caspar
"
Craig’s Place Shelter,434 N Pleasant Street,Amherst,Ma,1002,413-256-0704,42.4072107,-71.3824374,"https://craigsdoors.org/ourservices
"
Cross Street Family Shelter,59 Cross Street,Somerville,Ma,2144,617-776-6661,42.386185,-71.088089,"https://www.stmaryscenterma.org/crossroads
"
Crossroad Family Shelter,56 Havre Street,East Boston,Ma,2128,617-567-5926,42.3711614,-71.0400907,"https://www.stmaryscenterma.org/crossroads
"
Families in Transition,316 Huntington Ave,Boston,Ma,2115,617-927-8290,42.4072107,-71.3824374,"https://ymcaboston.org/community-and-food-access/housing/
"
Family Aid Boston,727 Atlantic Ave,Boston,Ma,2111,617-542-7286,42.2977551,-71.1165822,"https://familyaidboston.org/
"
Father Bills Place,38 Broad Street,Quincy,Ma,2169,617-770-3314,42.2560099,-70.9946405,"https://helpfbms.org/
"
First Church Shelter,11 Garden Street,Cambridge,Ma,2118,617-661-1873,42.4072107,-71.3824374,"https://www.firstchurchcambridge.org/first-church-shelter/
"
Franklin County Emergency Shelter,15 Farren Ave,Northampton,Ma,1376,413-772-0499,42.530599,-72.6151169,"https://bostonprojectrebound.org/massachusetts-homeless-shelters/
"
Grove Street Inn Shelter,91 Grove Street,Northampton,Ma,1060,413-568-6001,42.308164,-72.6465965,"https://www.housingworks.net/program/3716
"
Harvard Square Homeless Shelter,66 Winthrop Street,Cambridge,Ma,2138,617-547-2841,42.37166819999999,-71.1198607,"https://hshshelter.org/
"
Heading home (The Schrafft Center),529 Main Street- Suite 100,Charlestown,Ma,2129,617-864-8140,42.34567260000001,-71.0866012,"https://headinghomeinc.org/
"
Hildrand Family Self Help Center,614 Massachusetta Ave,Cambridge,Ma,2139,617-491-5752,42.3647793,-71.1035411,"https://hild-selfhelp.org/
"
IHN Worcester Overnight Shelter,91 June Street,Worcester,Ma,1608,508-755-2212,42.2658083,-71.8317931,"https://www.ihnworcester.org/
"
"Institute For Community Economics, Inc. Springfield",57 School St,Springfield,MA,1105,(413)746-8660,42.1036542,-72.5806165,"https://www.shelterlistings.org/details/25680
"
New England Shelter For Homeless Veterans,17 Court Street,Boston,Ma,2108,617-371-1800,42.4072107,-71.3824374,"https://nechv.org/
"
Northampton Servicenet Interfaith Cot Shelter,43 Center Street,Northampton,Ma,1060,461.526-6750,42.3196965,-72.6327183,"https://www.servicenet.org/
"
Pearl Street Homeless Shelter,21 Pearl Street,Pittsfield.,Ma,1201,413-320-6550,42.591027,-71.9608686,"https://bostonprojectrebound.org/mens-homeless-shelters/
"
Pilgrim Shelter,540 Columbia Road,Dorchester,Ma,2125,617-265-4515,42.3160526,-71.0666162,"http://www.pilgrimchurch1862.org/ministrytothehomeless/pilgrimhomelessshelter.html
"
Pine Street Inn,444 Harrison Avenue,Boston,Ma,2118,617-892-9100,42.34319869999999,-71.0645177,"https://www.thelynchfoundation.com/pine-street-inn/
"
Salvation Army Shelter,402 Mass Ave,Cambridge,Ma,2138,617-547-3400,42.3631298,-71.1003142,"https://www.salvationarmyusa.org/usn/provide-shelter/
"
Samaritan Inn,7 Free St.,Westfield,Ma,1805,413-568-3122,42.1215064,-72.7464391,"https://saminn.org/
"
Shattuck Shelter (Pine Street Inn),170 Morton Street,Jamaica Plain,Ma,2130,617-892-7917,42.34319869999999,-71.0645177,"https://www.mass.gov/location-details/lemuel-shattuck-hospital-shelter-for-homeless-men
"
Shepherd Place Willlith Center,54 Queen Street,Worcester,Ma,1510,508-757-5198,42.3220298,-71.1098381,"https://bostonprojectrebound.org/mens-homeless-shelters/
"
Somerville Coalition Shelter Services,14 Chapel Street,Somerville,Ma,2144,617-623-2546,42.3989578,-71.1211833,"https://somervillehomelesscoalition.org/
"
Southampton Street Mens Shelter,112 Southampton Street,Boston,Ma,2118,617-534-6100,42.3309959,-71.064523,"https://www.bhchp.org/locations/southampton-street-shelter/
"
Springfield Rescue Mission,148 Taylor Street,Springfield,Ma,1102,413-732-0516,42.0902431,-72.5788576,"https://springfieldrescuemission.org/
"
The Bristol Lodge Men’s Shelter,27 Lexington Street,Waltham,Ma,2452,781-893-0108,42.377499,-71.2354601,"https://www.cominghomedirectory.org/coming-home-post/bristol-lodge-mens-shelter/
"
"Veterans, Inc",69 Grove Street,Worcester,Ma,1605,800-482-2565,42.2742592,-71.8005907,"https://www.veteransinc.org/
"